{"type": "FeatureCollection", "features": [ {"type": "Feature", "properties": {"norad_id": 30546, "name": "FENGYUN 1C DEB", "group": "fengyun-1c-debris", "lat": 78.92002265864846, "lon": 162.44495982273813, "alt_km": 550.750447521873, "timestamp": "2025-12-24T05:51:19.885567+00:00", "meta": {"OBJECT_NAME": "FENGYUN 1C DEB", "OBJECT_ID": "1999-025AKL", "EPOCH": "2025-12-23T21:28:38.973792", "MEAN_MOTION": 14.87312485, "ECCENTRICITY": 0.00929224, "INCLINATION": 98.9075, "RA_OF_ASC_NODE": 215.268, "ARG_OF_PERICENTER": 126.9337, "MEAN_ANOMALY": 249.1826, "EPHEMERIS_TYPE": 0, "CLASSIFICATION_TYPE": "U", "NORAD_CAT_ID": 30546, "ELEMENT_SET_NO": 999, "REV_AT_EPOCH": 623, "BSTAR": 0.00087175275, "MEAN_MOTION_DOT": 8.451e-05, "MEAN_MOTION_DDOT": 0}, "tle": {"line1": "1 30546U 99025AKL 25357.89489553  .00008451  00000+0  87175-3 0  9994", "line2": "2 30546  98.9075 215.2680 0092922 126.9337 249.1826 14.87312485  6233"}}, "geometry": {"type": "Point", "coordinates": [162.44495982273813, 78.92002265864846]}}, {"type": "Feature", "properties": {"norad_id": 30547, "name": "FENGYUN 1C DEB", "group": "fengyun-1c-debris", "lat": -80.6781780407341, "lon": -85.64004670017633, "alt_km": 771.8540628127694, "timestamp": "2025-12-24T05:51:19.885580+00:00", "meta": {"OBJECT_NAME": "FENGYUN 1C DEB", "OBJECT_ID": "1999-025AKM", "EPOCH": "2025-12-23T09:07:56.052768", "MEAN_MOTION": 14.37767541, "ECCENTRICITY": 0.00955978, "INCLINATION": 98.9017, "RA_OF_ASC_NODE": 200.7587, "ARG_OF_PERICENTER": 185.8935, "MEAN_ANOMALY": 299.0311, "EPHEMERIS_TYPE": 0, "CLASSIFICATION_TYPE": "U", "NORAD_CAT_ID": 30547, "ELEMENT_SET_NO": 999, "REV_AT_EPOCH": 98875, "BSTAR": 0.00022984046, "MEAN_MOTION_DOT": 6.8e-06, "MEAN_MOTION_DDOT": 0}, "tle": {"line1": "1 30547U 99025AKM 25357.38050987  .00000680  00000+0  22984-3 0  9997", "line2": "2 30547  98.9017 200.7587 0095597 185.8935 299.0311 14.37767541988755"}}, "geometry": {"type": "Point", "coordinates": [-85.64004670017633, -80.6781780407341]}}, {"type": "Feature", "properties": {"norad_id": 30548, "name": "FENGYUN 1C DEB", "group": "fengyun-1c-debris", "lat": 76.49457860214177, "lon": -148.37738537571633, "alt_km": 830.1862385484401, "timestamp": "2025-12-24T05:51:19.885590+00:00", "meta": {"OBJECT_NAME": "FENGYUN 1C DEB", "OBJECT_ID": "1999-025AKN", "EPOCH": "2025-12-21T23:42:27.785376", "MEAN_MOTION": 14.26960912, "ECCENTRICITY": 0.00679804, "INCLINATION": 99.6823, "RA_OF_ASC_NODE": 254.4301, "ARG_OF_PERICENTER": 309.7869, "MEAN_ANOMALY": 66.5118, "EPHEMERIS_TYPE": 0, "CLASSIFICATION_TYPE": "U", "NORAD_CAT_ID": 30548, "ELEMENT_SET_NO": 999, "REV_AT_EPOCH": 14227, "BSTAR": 0.0019268572, "MEAN_MOTION_DOT": 4.75e-05, "MEAN_MOTION_DDOT": 0}, "tle": {"line1": "1 30548U 99025AKN 25355.98782159  .00004750  00000+0  19269-2 0  9998", "line2": "2 30548  99.6823 254.4301 0067980 309.7869  66.5118 14.26960912142273"}}, "geometry": {"type": "Point", "coordinates": [-148.37738537571633, 76.49457860214177]}}, {"type": "Feature", "properties": {"norad_id": 30549, "name": "FENGYUN 1C DEB", "group": "fengyun-1c-debris", "lat": -0.915652216062032, "lon": -62.295011762111955, "alt_km": 747.2118605495752, "timestamp": "2025-12-24T05:51:19.885601+00:00", "meta": {"OBJECT_NAME": "FENGYUN 1C DEB", "OBJECT_ID": "1999-025AKP", "EPOCH": "2025-12-23T13:31:15.879936", "MEAN_MOTION": 13.9880014, "ECCENTRICITY": 0.02884345, "INCLINATION": 98.4805, "RA_OF_ASC_NODE": 117.2108, "ARG_OF_PERICENTER": 226.7623, "MEAN_ANOMALY": 130.9138, "EPHEMERIS_TYPE": 0, "CLASSIFICATION_TYPE": "U", "NORAD_CAT_ID": 30549, "ELEMENT_SET_NO": 999, "REV_AT_EPOCH": 95445, "BSTAR": 0.0025219905, "MEAN_MOTION_DOT": 5.149e-05, "MEAN_MOTION_DDOT": 0}, "tle": {"line1": "1 30549U 99025AKP 25357.56337824  .00005149  00000+0  25220-2 0  9997", "line2": "2 30549  98.4805 117.2108 0288434 226.7623 130.9138 13.98800140954450"}}, "geometry": {"type": "Point", "coordinates": [-62.295011762111955, -0.915652216062032]}}, {"type": "Feature", "properties": {"norad_id": 30550, "name": "FENGYUN 1C DEB", "group": "fengyun-1c-debris", "lat": 44.85934043608996, "lon": 82.60187998023383, "alt_km": 943.5361204010887, "timestamp": "2025-12-24T05:51:19.885611+00:00", "meta": {"OBJECT_NAME": "FENGYUN 1C DEB", "OBJECT_ID": "1999-025AKQ", "EPOCH": "2025-12-23T11:14:12.023808", "MEAN_MOTION": 14.02479918, "ECCENTRICITY": 0.01313102, "INCLINATION": 99.0542, "RA_OF_ASC_NODE": 252.701, "ARG_OF_PERICENTER": 267.789, "MEAN_ANOMALY": 272.944, "EPHEMERIS_TYPE": 0, "CLASSIFICATION_TYPE": "U", "NORAD_CAT_ID": 30550, "ELEMENT_SET_NO": 999, "REV_AT_EPOCH": 95545, "BSTAR": 0.0026940074, "MEAN_MOTION_DOT": 4.426e-05, "MEAN_MOTION_DDOT": 0}, "tle": {"line1": "1 30550U 99025AKQ 25357.46819472  .00004426  00000+0  26940-2 0  9999", "line2": "2 30550  99.0542 252.7010 0131310 267.7890 272.9440 14.02479918955450"}}, "geometry": {"type": "Point", "coordinates": [82.60187998023383, 44.85934043608996]}}, {"type": "Feature", "properties": {"norad_id": 30552, "name": "FENGYUN 1C DEB", "group": "fengyun-1c-debris", "lat": 25.391221629746, "lon": -45.205119840762045, "alt_km": 703.9641805662113, "timestamp": "2025-12-24T05:51:19.885621+00:00", "meta": {"OBJECT_NAME": "FENGYUN 1C DEB", "OBJECT_ID": "1999-025AKS", "EPOCH": "2025-12-23T14:17:39.408864", "MEAN_MOTION": 14.55018023, "ECCENTRICITY": 0.00152161, "INCLINATION": 98.8352, "RA_OF_ASC_NODE": 129.8761, "ARG_OF_PERICENTER": 221.7529, "MEAN_ANOMALY": 138.2506, "EPHEMERIS_TYPE": 0, "CLASSIFICATION_TYPE": "U", "NORAD_CAT_ID": 30552, "ELEMENT_SET_NO": 999, "REV_AT_EPOCH": 97810, "BSTAR": 0.0030231632, "MEAN_MOTION_DOT": 0.00013016, "MEAN_MOTION_DDOT": 0}, "tle": {"line1": "1 30552U 99025AKS 25357.59559501  .00013016  00000+0  30232-2 0  9993", "line2": "2 30552  98.8352 129.8761 0015216 221.7529 138.2506 14.55018023978108"}}, "geometry": {"type": "Point", "coordinates": [-45.205119840762045, 25.391221629746]}}, {"type": "Feature", "properties": {"norad_id": 30553, "name": "FENGYUN 1C DEB", "group": "fengyun-1c-debris", "lat": -38.42586500233082, "lon": -92.78609932149173, "alt_km": 661.639351752161, "timestamp": "2025-12-24T05:51:19.885632+00:00", "meta": {"OBJECT_NAME": "FENGYUN 1C DEB", "OBJECT_ID": "1999-025AKT", "EPOCH": "2025-12-23T12:33:36.476640", "MEAN_MOTION": 14.72674894, "ECCENTRICITY": 0.00194108, "INCLINATION": 99.13, "RA_OF_ASC_NODE": 93.7348, "ARG_OF_PERICENTER": 119.2895, "MEAN_ANOMALY": 241.0252, "EPHEMERIS_TYPE": 0, "CLASSIFICATION_TYPE": "U", "NORAD_CAT_ID": 30553, "ELEMENT_SET_NO": 999, "REV_AT_EPOCH": 98632, "BSTAR": 0.0031984946, "MEAN_MOTION_DOT": 0.00020447, "MEAN_MOTION_DDOT": 0}, "tle": {"line1": "1 30553U 99025AKT 25357.52333885  .00020447  00000+0  31985-2 0  9994", "line2": "2 30553  99.1300  93.7348 0019410 119.2895 241.0252 14.72674894986320"}}, "geometry": {"type": "Point", "coordinates": [-92.78609932149173, -38.42586500233082]}}, {"type": "Feature", "properties": {"norad_id": 30555, "name": "FENGYUN 1C DEB", "group": "fengyun-1c-debris", "lat": 28.399263508671673, "lon": 46.88627994148891, "alt_km": 848.1790020588369, "timestamp": "2025-12-24T05:51:19.885642+00:00", "meta": {"OBJECT_NAME": "FENGYUN 1C DEB", "OBJECT_ID": "1999-025AKV", "EPOCH": "2025-12-23T22:07:06.245184", "MEAN_MOTION": 14.20866361, "ECCENTRICITY": 0.00432064, "INCLINATION": 98.756, "RA_OF_ASC_NODE": 51.3469, "ARG_OF_PERICENTER": 239.1198, "MEAN_ANOMALY": 301.4156, "EPHEMERIS_TYPE": 0, "CLASSIFICATION_TYPE": "U", "NORAD_CAT_ID": 30555, "ELEMENT_SET_NO": 999, "REV_AT_EPOCH": 97094, "BSTAR": 0.0013674155, "MEAN_MOTION_DOT": 2.941e-05, "MEAN_MOTION_DDOT": 0}, "tle": {"line1": "1 30555U 99025AKV 25357.92160006  .00002941  00000+0  13674-2 0  9997", "line2": "2 30555  98.7560  51.3469 0043206 239.1198 301.4156 14.20866361970947"}}, "geometry": {"type": "Point", "coordinates": [46.88627994148891, 28.399263508671673]}}, {"type": "Feature", "properties": {"norad_id": 30556, "name": "FENGYUN 1C DEB", "group": "fengyun-1c-debris", "lat": 81.12900898590593, "lon": -90.9359075639017, "alt_km": 903.4805760477329, "timestamp": "2025-12-24T05:51:19.885652+00:00", "meta": {"OBJECT_NAME": "FENGYUN 1C DEB", "OBJECT_ID": "1999-025AKW", "EPOCH": "2025-12-23T22:50:23.633952", "MEAN_MOTION": 14.01373798, "ECCENTRICITY": 0.00686876, "INCLINATION": 98.7806, "RA_OF_ASC_NODE": 350.7828, "ARG_OF_PERICENTER": 205.9554, "MEAN_ANOMALY": 209.6115, "EPHEMERIS_TYPE": 0, "CLASSIFICATION_TYPE": "U", "NORAD_CAT_ID": 30556, "ELEMENT_SET_NO": 999, "REV_AT_EPOCH": 96414, "BSTAR": 0.00017282168, "MEAN_MOTION_DOT": 2.24e-06, "MEAN_MOTION_DDOT": 0}, "tle": {"line1": "1 30556U 99025AKW 25357.95166243  .00000224  00000+0  17282-3 0  9992", "line2": "2 30556  98.7806 350.7828 0068687 205.9554 209.6115 14.01373798964148"}}, "geometry": {"type": "Point", "coordinates": [-90.9359075639017, 81.12900898590593]}}, {"type": "Feature", "properties": {"norad_id": 30557, "name": "FENGYUN 1C DEB", "group": "fengyun-1c-debris", "lat": -63.92139669216178, "lon": -135.39586745408124, "alt_km": 828.2639414859868, "timestamp": "2025-12-24T05:51:19.885665+00:00", "meta": {"OBJECT_NAME": "FENGYUN 1C DEB", "OBJECT_ID": "1999-025AKX", "EPOCH": "2025-12-22T16:57:14.652576", "MEAN_MOTION": 14.10841924, "ECCENTRICITY": 0.00687056, "INCLINATION": 98.9195, "RA_OF_ASC_NODE": 61.7935, "ARG_OF_PERICENTER": 204.7549, "MEAN_ANOMALY": 155.032, "EPHEMERIS_TYPE": 0, "CLASSIFICATION_TYPE": "U", "NORAD_CAT_ID": 30557, "ELEMENT_SET_NO": 999, "REV_AT_EPOCH": 96441, "BSTAR": 0.0012107904, "MEAN_MOTION_DOT": 2.174e-05, "MEAN_MOTION_DDOT": 0}, "tle": {"line1": "1 30557U 99025AKX 25356.70641959  .00002174  00000+0  12108-2 0  9994", "line2": "2 30557  98.9195  61.7935 0068705 204.7549 155.0320 14.10841924964415"}}, "geometry": {"type": "Point", "coordinates": [-135.39586745408124, -63.92139669216178]}}]}